{
  "type": "FeatureCollection",
  "features": [
    {
      "type": "Feature",
      "properties": {
        "norad_id": 30396,
        "name": "FENGYUN 1C DEB",
        "group": "fengyun-1c-debris",
        "lat": -78.9466032987069,
        "lon": 122.17375107305875,
        "alt_km": 1005.6228963586727,
        "timestamp": "2025-12-10T21:43:22.364130+00:00",
        "meta_object_name": "FENGYUN 1C DEB",
        "meta_object_id": "1999-025ADK",
        "meta_epoch": "2025-12-09T23:50:05.422848",
        "meta_mean_motion": 13.87167499,
        "meta_eccentricity": 0.01349167,
        "meta_inclination": 98.224,
        "meta_ra_of_asc_node": 349.1291,
        "meta_arg_of_pericenter": 137.2722,
        "meta_mean_anomaly": 252.2431,
        "meta_ephemeris_type": 0,
        "meta_classification_type": "U",
        "meta_norad_cat_id": 30396,
        "meta_element_set_no": 999,
        "meta_rev_at_epoch": 95541,
        "meta_bstar": 0.00015541239,
        "meta_mean_motion_dot": 1.61e-06,
        "meta_mean_motion_ddot": 0,
        "tle_line1": "1 30396U 99025ADK 25343.99311832  .00000161  00000+0  15541-3 0  9995",
        "tle_line2": "2 30396  98.2240 349.1291 0134916 137.2722 252.2431 13.87167499955413"
      },
      "geometry": {
        "type": "Point",
        "coordinates": [
          122.17375107305875,
          -78.9466032987069
        ]
      }
    },
    {
      "type": "Feature",
      "properties": {
        "norad_id": 30397,
        "name": "FENGYUN 1C DEB",
        "group": "fengyun-1c-debris",
        "lat": 69.28647104757658,
        "lon": 110.24226245348801,
        "alt_km": 794.2909435527654,
        "timestamp": "2025-12-10T21:43:22.364140+00:00",
        "meta_object_name": "FENGYUN 1C DEB",
        "meta_object_id": "1999-025ADL",
        "meta_epoch": "2025-12-10T09:37:41.071584",
        "meta_mean_motion": 13.98576343,
        "meta_eccentricity": 0.01497566,
        "meta_inclination": 98.4059,
        "meta_ra_of_asc_node": 132.7988,
        "meta_arg_of_pericenter": 99.1685,
        "meta_mean_anomaly": 316.7179,
        "meta_ephemeris_type": 0,
        "meta_classification_type": "U",
        "meta_norad_cat_id": 30397,
        "meta_element_set_no": 999,
        "meta_rev_at_epoch": 95732,
        "meta_bstar": 0.0015415086,
        "meta_mean_motion_dot": 2.396e-05,
        "meta_mean_motion_ddot": 0,
        "tle_line1": "1 30397U 99025ADL 25344.40116981  .00002396  00000+0  15415-2 0  9992",
        "tle_line2": "2 30397  98.4059 132.7988 0149756  99.1685 316.7179 13.98576343957326"
      },
      "geometry": {
        "type": "Point",
        "coordinates": [
          110.24226245348801,
          69.28647104757658
        ]
      }
    },
    {
      "type": "Feature",
      "properties": {
        "norad_id": 30398,
        "name": "FENGYUN 1C DEB",
        "group": "fengyun-1c-debris",
        "lat": -74.6380751921628,
        "lon": 22.81120646178915,
        "alt_km": 881.6009311008611,
        "timestamp": "2025-12-10T21:43:22.364150+00:00",
        "meta_object_name": "FENGYUN 1C DEB",
        "meta_object_id": "1999-025ADM",
        "meta_epoch": "2025-12-10T07:09:29.035008",
        "meta_mean_motion": 13.78693876,
        "meta_eccentricity": 0.0172896,
        "meta_inclination": 99.7141,
        "meta_ra_of_asc_node": 240.7609,
        "meta_arg_of_pericenter": 302.427,
        "meta_mean_anomaly": 186.4449,
        "meta_ephemeris_type": 0,
        "meta_classification_type": "U",
        "meta_norad_cat_id": 30398,
        "meta_element_set_no": 999,
        "meta_rev_at_epoch": 94723,
        "meta_bstar": 0.00077123,
        "meta_mean_motion_dot": 8.27e-06,
        "meta_mean_motion_ddot": 0,
        "tle_line1": "1 30398U 99025ADM 25344.29825272  .00000827  00000+0  77123-3 0  9992",
        "tle_line2": "2 30398  99.7141 240.7609 0172896 302.4270 186.4449 13.78693876947234"
      },
      "geometry": {
        "type": "Point",
        "coordinates": [
          22.81120646178915,
          -74.6380751921628
        ]
      }
    },
    {
      "type": "Feature",
      "properties": {
        "norad_id": 30400,
        "name": "FENGYUN 1C DEB",
        "group": "fengyun-1c-debris",
        "lat": -54.81906742583879,
        "lon": 79.16540196475098,
        "alt_km": 905.8899458553569,
        "timestamp": "2025-12-10T21:43:22.364161+00:00",
        "meta_object_name": "FENGYUN 1C DEB",
        "meta_object_id": "1999-025ADP",
        "meta_epoch": "2025-12-08T07:50:43.519776",
        "meta_mean_motion": 14.09839617,
        "meta_eccentricity": 0.02278529,
        "meta_inclination": 99.1568,
        "meta_ra_of_asc_node": 269.7675,
        "meta_arg_of_pericenter": 348.052,
        "meta_mean_anomaly": 131.592,
        "meta_ephemeris_type": 0,
        "meta_classification_type": "U",
        "meta_norad_cat_id": 30400,
        "meta_element_set_no": 999,
        "meta_rev_at_epoch": 95452,
        "meta_bstar": 0.0059510634,
        "meta_mean_motion_dot": 0.00013297,
        "meta_mean_motion_ddot": 0,
        "tle_line1": "1 30400U 99025ADP 25342.32689259  .00013297  00000+0  59511-2 0  9996",
        "tle_line2": "2 30400  99.1568 269.7675 0227852 348.0520 131.5920 14.09839617954521"
      },
      "geometry": {
        "type": "Point",
        "coordinates": [
          79.16540196475098,
          -54.81906742583879
        ]
      }
    },
    {
      "type": "Feature",
      "properties": {
        "norad_id": 30401,
        "name": "FENGYUN 1C DEB",
        "group": "fengyun-1c-debris",
        "lat": 37.23360463332592,
        "lon": 48.62580252277963,
        "alt_km": 719.3720550791058,
        "timestamp": "2025-12-10T21:43:22.364171+00:00",
        "meta_object_name": "FENGYUN 1C DEB",
        "meta_object_id": "1999-025ADQ",
        "meta_epoch": "2025-12-10T09:17:35.261952",
        "meta_mean_motion": 14.27988631,
        "meta_eccentricity": 0.01077873,
        "meta_inclination": 98.9473,
        "meta_ra_of_asc_node": 221.219,
        "meta_arg_of_pericenter": 134.2625,
        "meta_mean_anomaly": 226.7464,
        "meta_ephemeris_type": 0,
        "meta_classification_type": "U",
        "meta_norad_cat_id": 30401,
        "meta_element_set_no": 999,
        "meta_rev_at_epoch": 98270,
        "meta_bstar": 0.00021167275,
        "meta_mean_motion_dot": 5.13e-06,
        "meta_mean_motion_ddot": 0,
        "tle_line1": "1 30401U 99025ADQ 25344.38721368  .00000513  00000+0  21167-3 0  9997",
        "tle_line2": "2 30401  98.9473 221.2190 0107787 134.2625 226.7464 14.27988631982706"
      },
      "geometry": {
        "type": "Point",
        "coordinates": [
          48.62580252277963,
          37.23360463332592
        ]
      }
    },
    {
      "type": "Feature",
      "properties": {
        "norad_id": 30403,
        "name": "FENGYUN 1C DEB",
        "group": "fengyun-1c-debris",
        "lat": -5.031094599507961,
        "lon": 64.08631984640928,
        "alt_km": 778.7131557964012,
        "timestamp": "2025-12-10T21:43:22.364181+00:00",
        "meta_object_name": "FENGYUN 1C DEB",
        "meta_object_id": "1999-025ADS",
        "meta_epoch": "2025-12-10T04:51:13.040064",
        "meta_mean_motion": 14.21498437,
        "meta_eccentricity": 0.00748178,
        "meta_inclination": 99.0591,
        "meta_ra_of_asc_node": 62.5605,
        "meta_arg_of_pericenter": 30.4345,
        "meta_mean_anomaly": 330.1143,
        "meta_ephemeris_type": 0,
        "meta_classification_type": "U",
        "meta_norad_cat_id": 30403,
        "meta_element_set_no": 999,
        "meta_rev_at_epoch": 96770,
        "meta_bstar": 0.0024939822,
        "meta_mean_motion_dot": 5.572e-05,
        "meta_mean_motion_ddot": 0,
        "tle_line1": "1 30403U 99025ADS 25344.20223426  .00005572  00000+0  24940-2 0  9993",
        "tle_line2": "2 30403  99.0591  62.5605 0074817  30.4345 330.1143 14.21498437967702"
      },
      "geometry": {
        "type": "Point",
        "coordinates": [
          64.08631984640928,
          -5.031094599507961
        ]
      }
    },
    {
      "type": "Feature",
      "properties": {
        "norad_id": 30404,
        "name": "FENGYUN 1C DEB",
        "group": "fengyun-1c-debris",
        "lat": -77.14307672463995,
        "lon": 126.20831614296125,
        "alt_km": 1340.293141489471,
        "timestamp": "2025-12-10T21:43:22.364192+00:00",
        "meta_object_name": "FENGYUN 1C DEB",
        "meta_object_id": "1999-025ADT",
        "meta_epoch": "2025-12-09T17:22:00.970176",
        "meta_mean_motion": 13.34340356,
        "meta_eccentricity": 0.03762169,
        "meta_inclination": 99.8341,
        "meta_ra_of_asc_node": 75.6132,
        "meta_arg_of_pericenter": 143.8851,
        "meta_mean_anomaly": 218.8323,
        "meta_ephemeris_type": 0,
        "meta_classification_type": "U",
        "meta_norad_cat_id": 30404,
        "meta_element_set_no": 999,
        "meta_rev_at_epoch": 57996,
        "meta_bstar": 0.0018981594,
        "meta_mean_motion_dot": 1.373e-05,
        "meta_mean_motion_ddot": 0,
        "tle_line1": "1 30404U 99025ADT 25343.72362234  .00001373  00000+0  18982-2 0  9995",
        "tle_line2": "2 30404  99.8341  75.6132 0376216 143.8851 218.8323 13.34340356579961"
      },
      "geometry": {
        "type": "Point",
        "coordinates": [
          126.20831614296125,
          -77.14307672463995
        ]
      }
    }
  ]
}